CYGFM04                 
1 41885U 16078B   24241.55411913  .00022998  00000+0  77074-3 0  9997
2 41885  34.9381 185.6369 0009450 174.6042 185.4777 15.29962522427258
CYGFM02                 
1 41886U 16078C   24241.17172663  .00020610  00000+0  68378-3 0  9998
2 41886  34.9462 190.1581 0011497 156.6783 203.4456 15.30282364427281
CYGFM01                 
1 41887U 16078D   24241.21021780  .00019132  00000+0  66537-3 0  9999
2 41887  34.9482 208.4422 0010588 133.2008 226.9593 15.28779946427031
CYGFM08                 
1 41888U 16078E   24241.57507400  .00023001  00000+0  77463-3 0  9997
2 41888  34.9489 193.6257 0012283 160.7489 199.3693 15.29774892427278
CYGFM07                 
1 41890U 16078G   24241.53671680  .00022938  00000+0  76494-3 0  9999
2 41890  34.9513 185.1085 0009384 176.2001 183.8787 15.30123295427262
CYGFM03                 
1 41891U 16078H   24238.96599457  .00015345  00000+0  51616-3 0  9997
2 41891  34.9438 202.7165 0008594 132.1158 228.0290 15.29911833426856
FENGYUN 3D              
1 43010U 17072A   24241.91392580  .00000394  00000+0  20871-3 0  9991
2 43010  98.9166 197.0164 0002443 109.5831 250.5608 14.19406155351738
NOAA 20 (JPSS-1)        
1 43013U 17073A   24242.08168381  .00000313  00000+0  16894-3 0  9995
2 43013  98.7079 178.7869 0001966  49.7829 310.3519 14.19571619351241
GOES 17                 
1 43226U 18022A   24241.61455785 -.00000106  00000+0  00000+0 0  9990
2 43226   0.0230 310.7185 0002038 253.3141 249.8051  1.00272139 23831
FENGYUN 2H              
1 43491U 18050A   24241.87202312 -.00000147  00000+0  00000+0 0  9994
2 43491   1.3282  86.6877 0001253 107.3804 176.8349  1.00274805 22846
METOP-C                 
1 43689U 18087A   24242.13438313  .00000380  00000+0  19384-3 0  9992
2 43689  98.7176 300.5376 0001045 190.9738 169.1416 14.21456480301480
GEO-KOMPSAT-2A          
1 43823U 18100A   24241.87500236 -.00000360  00000+0  00000+0 0  9992
2 43823   0.0232 101.7941 0001585  13.0277 306.0263  1.00268832 21037
METEOR-M2 2             
1 44387U 19038A   24241.87861678  .00000547  00000+0  25807-3 0  9991
2 44387  98.8341 211.4132 0002391 100.6364 259.5083 14.23945949267737
ARKTIKA-M 1             
1 47719U 21016A   24240.03659476  .00000029  00000+0  00000+0 0  9999
2 47719  63.1328 143.5940 6966929 268.5813  17.7869  2.00597082 25568
FENGYUN 3E              
1 49008U 21062A   24242.14681131  .00000127  00000+0  80753-4 0  9997
2 49008  98.7362 242.4572 0001913 144.9283 215.2020 14.19778467163342
GOES 18                 
1 51850U 22021A   24240.74971147  .00000083  00000+0  00000+0 0  9997
2 51850   0.0063  87.0002 0000339 110.1661 272.1784  1.00270902   594
NOAA 21 (JPSS-2)        
1 54234U 22150A   24241.90623554  .00000327  00000+0  17589-3 0  9999
2 54234  98.7532 178.9541 0000647  44.3133 315.8095 14.19560912 93296
METEOSAT-12 (MTG-I1)    
1 54743U 22170C   24242.21803623 -.00000023  00000+0  00000+0 0  9998
2 54743   0.5819  44.6156 0001920  96.2299 275.2243  1.00271394  6382
TIANMU-1 03             
1 55973U 23039A   24242.16723087  .00019141  00000+0  78188-3 0  9994
2 55973  97.4756  32.4491 0003968 283.7237  76.3558 15.24422568 79964
TIANMU-1 04             
1 55974U 23039B   24242.14621005  .00018549  00000+0  75521-3 0  9999
2 55974  97.4679  31.9241 0004986 279.4329  80.6344 15.24535234 79956
TIANMU-1 05             
1 55975U 23039C   24241.87175185  .00019143  00000+0  78218-3 0  9999
2 55975  97.4726  32.0144 0003640 308.9720  51.1193 15.24414281 79901
TIANMU-1 06             
1 55976U 23039D   24241.91201692  .00019556  00000+0  79365-3 0  9990
2 55976  97.4739  32.2059 0004202 305.1489  54.9354 15.24635446 79918
METEOR-M2 3             
1 57166U 23091A   24241.91413063  .00000094  00000+0  60168-4 0  9997
2 57166  98.7069 295.9149 0002850 281.7632  78.3227 14.23918118 60978
TIANMU-1 07             
1 57399U 23101A   24241.88258487  .00012908  00000+0  62902-3 0  9994
2 57399  97.3576 297.0278 0003250 301.1820  58.9096 15.18462103 61456
TIANMU-1 08             
1 57400U 23101B   24241.91737368  .00013337  00000+0  64953-3 0  9996
2 57400  97.3563 296.9254 0005613 304.9106  55.1601 15.18467055 61452
TIANMU-1 09             
1 57401U 23101C   24241.90038475  .00014142  00000+0  68798-3 0  9995
2 57401  97.3520 296.7084 0005930 299.0173  61.0467 15.18490235 61457
TIANMU-1 10             
1 57402U 23101D   24242.19693114  .00012619  00000+0  61433-3 0  9991
2 57402  97.3598 297.3468 0007997 295.4514  64.5892 15.18479686 61491
FENGYUN 3F              
1 57490U 23111A   24242.16769325  .00000282  00000+0  15389-3 0  9996
2 57490  98.7645 310.6101 0000678 143.7719 216.3503 14.19866008 55622
ARKTIKA-M 2             
1 58584U 23198A   24240.26727026  .00000095  00000+0  00000+0 0  9999
2 58584  63.2516 227.2813 6955453 269.7504  17.3829  2.00599419  5093
TIANMU-1 11             
1 58645U 23205A   24242.13916394  .00011943  00000+0  61858-3 0  9998
2 58645  97.4019 265.3873 0012615 144.0482 216.1602 15.16278432 37560
TIANMU-1 12             
1 58646U 23205B   24241.62423998  .00009808  00000+0  50998-3 0  9995
2 58646  97.4002 264.8077 0010746 139.3389 220.8648 15.16212421 37477
TIANMU-1 13             
1 58647U 23205C   24242.18795463  .00011736  00000+0  60804-3 0  9997
2 58647  97.4032 265.3732 0011569 122.6071 237.6280 15.16285379 37551
TIANMU-1 14             
1 58648U 23205D   24242.23773525  .00011251  00000+0  58299-3 0  9996
2 58648  97.3956 265.2154 0012141 125.7988 234.4375 15.16284915 37567
TIANMU-1 19             
1 58660U 23208A   24241.38193726  .00012643  00000+0  65168-3 0  9996
2 58660  97.4148 352.0495 0009607 113.6717 246.5525 15.16465100 37105
TIANMU-1 20             
1 58661U 23208B   24241.87568788  .00015426  00000+0  77426-3 0  9997
2 58661  97.4073 352.5227 0010719 121.0443 239.1844 15.17344308 37194
TIANMU-1 21             
1 58662U 23208C   24242.21892941  .00016326  00000+0  79538-3 0  9994
2 58662  97.4113 353.2572 0010392 119.7634 240.4636 15.18377399 37263
TIANMU-1 22             
1 58663U 23208D   24241.86252881  .00015475  00000+0  79695-3 0  9996
2 58663  97.4132 352.5759 0006040 130.1441 230.0322 15.16474698 37188
TIANMU-1 15             
1 58700U 24004A   24241.90657042  .00013572  00000+0  70215-3 0  9991
2 58700  97.4645  61.7305 0010250 154.5703 205.6037 15.16315410 35785
TIANMU-1 16             
1 58701U 24004B   24241.88771177  .00013082  00000+0  67624-3 0  9991
2 58701  97.4572  61.5265 0010156 159.7539 200.4099 15.16353396 35783
TIANMU-1 17             
1 58702U 24004C   24242.20387519  .00012493  00000+0  64678-3 0  9993
2 58702  97.4612  62.0048 0008136 152.5505 207.6159 15.16327841 35820
TIANMU-1 18             
1 58703U 24004D   24242.18624062  .00013037  00000+0  67477-3 0  9993
2 58703  97.4630  62.0763 0007534 142.8127 217.3629 15.16328397 35825
INSAT-3DS               
1 58990U 24033A   24241.87202312 -.00000172  00000+0  00000+0 0  9990
2 58990   0.0932 273.9036 0001690 255.9408 203.7364  1.00271967 40479
METEOR-M2 4             
1 59051U 24039A   24242.15943571  .00000184  00000+0  10234-3 0  9992
2 59051  98.6044 202.2794 0005866 274.9936  85.0572 14.22256825 25869
GOES 19                 
1 60133U 24119A   24241.61759866 -.00000197  00000+0  00000+0 0  9997
2 60133   0.0346 212.7720 0002512 241.6284  15.7389  1.00269657   375
HULIANWAN GAOGUI-02 (H*)
1 60327U 24135A   24241.85118813 -.00000189  00000+0  00000+0 0  9998
2 60327   0.0193 193.3567 0000569  48.5357 195.1723  1.00273003   902
CZ-3B R/B               
1 60328U 24135B   24241.21693665  .00133829  51178-6  23798-2 0  9990
2 60328  26.7520 135.6969 7178990 196.5560 114.4559  2.46134806   648
STARLINK-31745          
1 60329U 24136A   24241.91667824 -.00060640  00000+0 -66136-3 0  9994
2 60329  53.1596 149.1719 0001530  75.1865 114.8227 15.62755962  5473
STARLINK-32153          
1 60330U 24136B   24241.91667824 -.00051503  00000+0 -56018-3 0  9992
2 60330  53.1594 149.1645 0001176 121.4013  72.4323 15.62757729  5331
STARLINK-32203          
1 60331U 24136C   24242.25002315  .00265959  00000+0  28243-2 0  9997
2 60331  53.1584 147.5305 0001416  85.5128 188.4483 15.62683510  5342
STARLINK-32171          
1 60332U 24136D   24241.91667824 -.00054735  00000+0 -59584-3 0  9995
2 60332  53.1594 149.1406 0001236 106.5534  98.7743 15.62761995  5288
STARLINK-32133          
1 60333U 24136E   24241.91667824 -.00043119  00000+0 -46765-3 0  9997
2 60333  53.1592 149.1486 0000908 145.5067  55.9934 15.62753420  5274
STARLINK-32132          
1 60334U 24136F   24241.91667824 -.00054722  00000+0 -59589-3 0  9998
2 60334  53.1595 149.1330 0001360  77.7333 131.4408 15.62752930  5339
STARLINK-32168          
1 60335U 24136G   24241.91667824 -.00057824  00000+0 -63017-3 0  9996
2 60335  53.1577 149.1236 0001156  67.9638 145.0394 15.62756620  5433
STARLINK-32079          
1 60336U 24136H   24241.91667824 -.00062514  00000+0 -68191-3 0  9997
2 60336  53.1595 149.1166 0001246  78.2663 138.5598 15.62765379  5488
STARLINK-32187          
1 60337U 24136J   24241.91667824  .00352474  00000+0  18686-2 0  9996
2 60337  53.1483 148.7873 0002752 207.8265 168.7680 15.79018628  5388
STARLINK-32078          
1 60338U 24136K   24242.25002315 -.00581547  00000+0 -67317-2 0  9995
2 60338  53.1584 147.4760 0000580  77.7144 223.0040 15.63061129  5448
STARLINK-32175          
1 60339U 24136L   24242.25002315 -.00967318  00000+0 -11478-1 0  9996
2 60339  53.1586 147.4680 0000965  58.7789 245.7658 15.63190618  5445
STARLINK-32176          
1 60340U 24136M   24242.25002315 -.01404148  00000+0 -16673-1 0  9998
2 60340  53.1593 147.4604 0000711  71.8001 236.6010 15.63303436  5448
